TELEOS-2                
1 56310U 23057C   26067.64596106  .00000863  00000+0  15043-4 0  9993
2 56310   9.9874 216.2411 0000803 295.2771  64.7359 14.96380118157711
STARLINK-34501          
1 64429U 25129T   26068.41934416 -.00000205  00000+0 -94003-5 0  9997
2 64429  70.0006  75.2658 0003319 271.1780  88.8999 14.98326747 41248
